{
"type": "FeatureCollection",
"name": "wui_aoi",
"crs": { "type": "name", "properties": { "name": "urn:ogc:def:crs:OGC:1.3:CRS84" } },
"features": [
{ "type": "Feature", "properties": { "OBJECTID": 887, "WUI_CLASS": "Vegetated Uninhabited – Wildlands", "Shape__Area": 756583285.79122925, "Shape__Length": 318134.76614519826 }, "geometry": { "type": "MultiPolygon", "coordinates": [ [ [ [ -121.589790294873552, 47.350720253891126 ], [ -121.590011691851231, 47.350718174725337 ], [ -121.590067497470457, 47.354171698192253 ], [ -121.590034322101289, 47.368675024056117 ], [ -121.589463188597023, 47.383557953212062 ], [ -121.589590620110073, 47.397733277999222 ], [ -121.589311354175081, 47.404907434992182 ], [ -121.589318610942769, 47.405038317998134 ], [ -121.589643617097721, 47.410900330280263 ], [ -121.589425125768841, 47.410902379113523 ], [ -121.589419635930241, 47.410632574707158 ], [ -121.587829808294046, 47.410647470127699 ], [ -121.587835291260987, 47.410917275501724 ], [ -121.587040372998217, 47.410924714889781 ], [ -121.58704585059229, 47.411194520313614 ], [ -121.586250927998435, 47.41120195416628 ], [ -121.58625640285608, 47.411471758722911 ], [ -121.586261876458579, 47.411741564190208 ], [ -121.585864411634489, 47.411745279060376 ], [ -121.585858940097566, 47.411475474473242 ], [ -121.585064013072653, 47.411482900902811 ], [ -121.58505854568412, 47.411213095380404 ], [ -121.58346869916636, 47.411227931441076 ], [ -121.583071238065031, 47.411231637417842 ], [ -121.583065779682912, 47.4109618327101 ], [ -121.582668320564508, 47.410965536374881 ], [ -121.582662864291137, 47.410695731650456 ], [ -121.582265407181595, 47.410699434801948 ], [ -121.58225449889575, 47.410159824422927 ], [ -121.581459592704093, 47.410167225569595 ], [ -121.581454142756854, 47.409897420795232 ], [ -121.581056690310234, 47.409901119717716 ], [ -121.581051242458699, 47.409631314027401 ], [ -121.581448692852888, 47.409627615124023 ], [ -121.581437793226669, 47.409088004688513 ], [ -121.58104034826205, 47.409091703544831 ], [ -121.581045796001192, 47.409361509230116 ], [ -121.58064834760296, 47.409365206720899 ], [ -121.580659239132686, 47.409904817237994 ], [ -121.579864335270599, 47.40991220720759 ], [ -121.579869777021656, 47.410182012957904 ], [ -121.580267230364129, 47.410178318205382 ], [ -121.580272674210704, 47.410448123039657 ], [ -121.580299894313384, 47.411797149047494 ], [ -121.580697359913941, 47.411793452786739 ], [ -121.580702806150512, 47.412063257616879 ], [ -121.581100273760313, 47.412059560842955 ], [ -121.581105722105463, 47.412329365656426 ], [ -121.581503191698559, 47.412325666570403 ], [ -121.58151409133788, 47.412865276175339 ], [ -121.582309039902952, 47.412857874636785 ], [ -121.58231449324974, 47.413127679408973 ], [ -121.582711968831134, 47.413123976085068 ], [ -121.582728338017176, 47.413933390341292 ], [ -121.583125819700243, 47.41392968556633 ], [ -121.58314765472295, 47.415008904529167 ], [ -121.583545144560048, 47.415005198283865 ], [ -121.58356152723313, 47.415814611576714 ], [ -121.583959021859897, 47.415810904788394 ], [ -121.583969947583682, 47.416350513326968 ], [ -121.584367447571509, 47.416346804198575 ], [ -121.584378377639723, 47.416886413607727 ], [ -121.584775880351827, 47.416882703056103 ], [ -121.584781348185956, 47.417152507740688 ], [ -121.585178852894401, 47.417148795776214 ], [ -121.585184322837833, 47.417418600443881 ], [ -121.585581829542676, 47.417414887066606 ], [ -121.585587301595481, 47.417684691717419 ], [ -121.585984810296679, 47.417680976927329 ], [ -121.585990283133711, 47.417950781570049 ], [ -121.587580328260358, 47.41793591017742 ], [ -121.587574847224673, 47.417666106511035 ], [ -121.587972355656021, 47.417662385652079 ], [ -121.587961389635581, 47.417122777465487 ], [ -121.588756399441777, 47.417115331634982 ], [ -121.588761886522732, 47.417385135238924 ], [ -121.589159392731233, 47.417381410218368 ], [ -121.589164881921761, 47.417651213805385 ], [ -121.589562391451466, 47.417647487363077 ], [ -121.589567882764641, 47.417917291832552 ], [ -121.589871880041969, 47.417914441074799 ], [ -121.589914448831394, 47.419527851268327 ], [ -121.589924248101667, 47.419899258770315 ], [ -121.590027214131325, 47.423415986542331 ], [ -121.590119710441314, 47.426174718602368 ], [ -121.589385251634326, 47.426230291173496 ], [ -121.589490173632882, 47.426710496269337 ], [ -121.589489927137677, 47.42671049242972 ], [ -121.581393747205581, 47.426589195023503 ], [ -121.581389099827291, 47.426359180640851 ], [ -121.58099152607096, 47.426362879311071 ], [ -121.580986076864264, 47.426093075257064 ], [ -121.580588505105496, 47.426096772514285 ], [ -121.58058305802173, 47.425826969342758 ], [ -121.57939034724204, 47.425838052702581 ], [ -121.579384906362336, 47.425568248576447 ], [ -121.578589770565003, 47.42557563136922 ], [ -121.578595207324952, 47.425845434634141 ], [ -121.578197635956784, 47.425849123517906 ], [ -121.578192201250303, 47.425579320233837 ], [ -121.577794633204803, 47.425583007695913 ], [ -121.577783768054502, 47.42504340019677 ], [ -121.577386202734573, 47.425047086235566 ], [ -121.577380772303471, 47.424777282919898 ], [ -121.576983210306139, 47.424780967537103 ], [ -121.576977781984581, 47.424511164204596 ], [ -121.576580220659366, 47.424514847417583 ], [ -121.576574794434634, 47.424245043168895 ], [ -121.576177235119388, 47.424248725868388 ], [ -121.576171811004187, 47.423978921602803 ], [ -121.575774254998763, 47.423982601981386 ], [ -121.575757987849457, 47.423173190948312 ], [ -121.576155537681956, 47.423169509727494 ], [ -121.576150113803365, 47.422899706370202 ], [ -121.575752564686411, 47.42290338668127 ], [ -121.575741721191491, 47.422363779035933 ], [ -121.575344176124929, 47.422367457915151 ], [ -121.575338755183026, 47.422097653635788 ], [ -121.574941213451822, 47.422101331992948 ], [ -121.574930377167902, 47.421561723394376 ], [ -121.574532838149111, 47.421565399428971 ], [ -121.574527422819685, 47.421295596009109 ], [ -121.574129885798072, 47.421299270630968 ], [ -121.574124471239728, 47.421029466303573 ], [ -121.573726936228297, 47.421033140412071 ], [ -121.57372152510429, 47.420763336059359 ], [ -121.573323992077221, 47.420767007855709 ], [ -121.573313172777929, 47.420227399127853 ], [ -121.572915643814113, 47.420231070391885 ], [ -121.572904827519395, 47.419691461643865 ], [ -121.572507302593124, 47.419695130576777 ], [ -121.572491086054555, 47.418885717406489 ], [ -121.57209356723142, 47.418889384888814 ], [ -121.572088163441364, 47.418619580487309 ], [ -121.571690646628227, 47.418623247456338 ], [ -121.571679844634104, 47.418083637714361 ], [ -121.571282330545984, 47.41808730326035 ], [ -121.571271532880928, 47.417547693489801 ], [ -121.570874022842602, 47.417551357604296 ], [ -121.570868626803019, 47.417281552249626 ], [ -121.570471118762015, 47.417285214951534 ], [ -121.570465723518382, 47.417015410488261 ], [ -121.570068218799705, 47.417019071768969 ], [ -121.570062825652158, 47.416749266389772 ], [ -121.569665321605342, 47.416752926266419 ], [ -121.569659930579022, 47.416483121770007 ], [ -121.569262429841743, 47.41648677932622 ], [ -121.569257040923929, 47.416216974813238 ], [ -121.568462042088228, 47.416224287514353 ], [ -121.568456657318976, 47.415954482066596 ], [ -121.567661661041484, 47.415961789164037 ], [ -121.567656280446059, 47.415691984580207 ], [ -121.566861289376661, 47.415699286056814 ], [ -121.566855912929697, 47.415429480538229 ], [ -121.566060924431383, 47.415436777310781 ], [ -121.566055552145428, 47.415166971756754 ], [ -121.564465584006143, 47.415181547595282 ], [ -121.564460219999162, 47.414911742867702 ], [ -121.564062729544005, 47.414915383101835 ], [ -121.564057366307523, 47.414645577467034 ], [ -121.563659879187327, 47.414649217179594 ], [ -121.563649158310966, 47.414109605871062 ], [ -121.563251673903153, 47.414113243261475 ], [ -121.563246314950746, 47.413843438495689 ], [ -121.562451350086874, 47.413850709957799 ], [ -121.562440641858203, 47.413311098550956 ], [ -121.562043163442169, 47.413314731704347 ], [ -121.562037810801002, 47.413044925990079 ], [ -121.561640334395094, 47.413048558630528 ], [ -121.561634985186728, 47.412778752891455 ], [ -121.561237510777929, 47.412782384119581 ], [ -121.561226813969441, 47.412242771728764 ], [ -121.560829343610507, 47.412246401525792 ], [ -121.560823997347953, 47.411976595765104 ], [ -121.560029060569121, 47.411983851141066 ], [ -121.560023718454232, 47.411714044445894 ], [ -121.559626252034803, 47.411717670024849 ], [ -121.559620912039875, 47.411447864212853 ], [ -121.558825981815275, 47.411455111161288 ], [ -121.558820645968126, 47.411185304414843 ], [ -121.558423183487847, 47.411188925775825 ], [ -121.55841784976073, 47.410919119912585 ], [ -121.558020389277985, 47.410922739861292 ], [ -121.558015057658167, 47.410652933981773 ], [ -121.557617597847837, 47.410656552526831 ], [ -121.55760693886603, 47.410116939838559 ], [ -121.557209484430231, 47.410120556944229 ], [ -121.557204157080349, 47.409850751034845 ], [ -121.55680670331698, 47.409854366736816 ], [ -121.556796052874716, 47.409314753988824 ], [ -121.556398603160829, 47.40931836825991 ], [ -121.556393280068249, 47.409048561421351 ], [ -121.555995833676604, 47.409052174271878 ], [ -121.555979869573122, 47.408242754623274 ], [ -121.555582427970762, 47.408246366932111 ], [ -121.555571790489253, 47.407706753203293 ], [ -121.554776915316211, 47.407713972666713 ], [ -121.554771600762152, 47.407444165768759 ], [ -121.554374165139293, 47.407447772942 ], [ -121.554368852692178, 47.407177966028058 ], [ -121.553971419078835, 47.407181572688614 ], [ -121.553966107414055, 47.406911765767006 ], [ -121.553568675785797, 47.406915370116117 ], [ -121.553563367552542, 47.406645563170038 ], [ -121.552768508248064, 47.406652768550309 ], [ -121.552763204174013, 47.406382961569577 ], [ -121.551968348766749, 47.406390162238395 ], [ -121.551973648736663, 47.406659969256481 ], [ -121.55117878899371, 47.406667163489686 ], [ -121.551184086239033, 47.406936970539199 ], [ -121.550389222173337, 47.406944159236126 ], [ -121.550383929032193, 47.406674352149473 ], [ -121.549986500300307, 47.406677944830591 ], [ -121.549981209266022, 47.406408137727922 ], [ -121.54958378120692, 47.406411729005534 ], [ -121.549578492279366, 47.406141921886949 ], [ -121.549181066217486, 47.406145511752548 ], [ -121.549175779396649, 47.405875704617955 ], [ -121.548778355332331, 47.405879293071699 ], [ -121.548773070617969, 47.405609485921126 ], [ -121.547978226417342, 47.405616657711953 ], [ -121.547972945861716, 47.405346850526946 ], [ -121.546383265051062, 47.405361180012427 ], [ -121.546377991420854, 47.405091371864813 ], [ -121.545583154798649, 47.405098528660183 ], [ -121.545577886663779, 47.404828721369356 ], [ -121.544783053915907, 47.404835871654896 ], [ -121.544777788614724, 47.404566064338006 ], [ -121.543585545253123, 47.404576780160376 ], [ -121.54358028616204, 47.4043069727907 ], [ -121.542785461090602, 47.404314109968453 ], [ -121.542780206145437, 47.404044301665103 ], [ -121.541985384960753, 47.404051433232787 ], [ -121.541980134185934, 47.403781625794473 ], [ -121.541582725570066, 47.403785189919645 ], [ -121.541577476889316, 47.403515381566216 ], [ -121.540782662262203, 47.403522504708612 ], [ -121.540777419076008, 47.403252697212153 ], [ -121.539187797391477, 47.403266927602985 ], [ -121.539182561142383, 47.402997120043885 ], [ -121.53679814063571, 47.403018424162674 ], [ -121.536792916751153, 47.402748616495892 ], [ -121.534011102553436, 47.402773409740682 ], [ -121.534021522987231, 47.403313026224644 ], [ -121.533624116070229, 47.403316562455288 ], [ -121.533634532615395, 47.403856178986565 ], [ -121.533237122865941, 47.403859713852242 ], [ -121.533242328498872, 47.404129521694657 ], [ -121.531255267396276, 47.404147177921331 ], [ -121.531250070698135, 47.403877369995712 ], [ -121.528468196467514, 47.403902029891135 ], [ -121.528473378814212, 47.404171838843688 ], [ -121.526883727208826, 47.404185900273674 ], [ -121.526888901401236, 47.404455709301672 ], [ -121.521325086070206, 47.404504754843771 ], [ -121.52131993929234, 47.404234946469408 ], [ -121.520525112357504, 47.404241931156434 ], [ -121.52051996973664, 47.403972122748577 ], [ -121.520122558235613, 47.403975612534396 ], [ -121.520117417719774, 47.403705804111098 ], [ -121.519720008229271, 47.403709293384914 ], [ -121.519714869806634, 47.403439484046906 ], [ -121.519317462315115, 47.403442971909378 ], [ -121.51931232600927, 47.403173163455435 ], [ -121.518914920504713, 47.403176649007086 ], [ -121.518904652143974, 47.402637031171778 ], [ -121.51850725070183, 47.402640516193543 ], [ -121.518502118658915, 47.402370707711619 ], [ -121.515322916319718, 47.402398536715864 ], [ -121.515328031959967, 47.402668346241207 ], [ -121.514533226745726, 47.402675289820294 ], [ -121.514538338323419, 47.402945098484857 ], [ -121.5141409329228, 47.402948568206384 ], [ -121.514146043837869, 47.403218377783077 ], [ -121.513748636332792, 47.403221846129249 ], [ -121.513763960565768, 47.404031273146508 ], [ -121.513366548176947, 47.404034740145271 ], [ -121.513392078469607, 47.405383784723064 ], [ -121.512994655779721, 47.405387251317578 ], [ -121.513004863626975, 47.405926868846585 ], [ -121.512607436768732, 47.405930333184237 ], [ -121.51259723302536, 47.405390715619326 ], [ -121.512199810218107, 47.40539417852775 ], [ -121.512169208578669, 47.403775324913852 ], [ -121.51097697546426, 47.403785705863889 ], [ -121.510971882195435, 47.403515897029791 ], [ -121.510177063522207, 47.40352281096321 ], [ -121.510171974409786, 47.403253002096122 ], [ -121.509774566377928, 47.403256456509233 ], [ -121.509769479370021, 47.402986647626875 ], [ -121.508974668588692, 47.402993553128958 ], [ -121.508969584412412, 47.40272374422149 ], [ -121.50817477752507, 47.402730644114662 ], [ -121.508169697504812, 47.40246083517426 ], [ -121.507374894511301, 47.402467729458579 ], [ -121.507379970439516, 47.402737539334069 ], [ -121.506585163132698, 47.402744428080823 ], [ -121.506590235009611, 47.403014237994739 ], [ -121.502616176211234, 47.403048603697421 ], [ -121.502611124853118, 47.402778793605798 ], [ -121.500624102448, 47.402795925476504 ], [ -121.50061906141282, 47.402526116198267 ], [ -121.500221658292816, 47.402529538018179 ], [ -121.500216619361538, 47.402259728724943 ], [ -121.499819218241484, 47.402263149133823 ], [ -121.499814181414109, 47.401993339825673 ], [ -121.498224587293009, 47.40200700924089 ], [ -121.498219557400049, 47.401737199872443 ], [ -121.496232573194163, 47.401754256557467 ], [ -121.496227553600548, 47.401484446204179 ], [ -121.493843182637306, 47.401504869224851 ], [ -121.493848189920158, 47.401774679683868 ], [ -121.492655997584762, 47.401784872437837 ], [ -121.492661000088617, 47.40205468294473 ], [ -121.491866201278015, 47.402061471180211 ], [ -121.491876195572345, 47.402601091388306 ], [ -121.491081388359206, 47.402607875020259 ], [ -121.49107639529548, 47.402338065329459 ], [ -121.490678992995484, 47.402341454592076 ], [ -121.49067400203532, 47.402071644886483 ], [ -121.483918200677607, 47.402129059611958 ], [ -121.483913243325176, 47.401859249619662 ], [ -121.48152885055903, 47.401879419892026 ], [ -121.481523905557324, 47.401609608898596 ], [ -121.479139523274554, 47.401629729808079 ], [ -121.479134590645813, 47.401359919612666 ], [ -121.478339799367944, 47.401366615706451 ], [ -121.478334870882748, 47.40109680457978 ], [ -121.477937477224529, 47.401100150969192 ], [ -121.477932549517476, 47.400830339835473 ], [ -121.477137767465791, 47.400837027492869 ], [ -121.477132843924082, 47.400567217226843 ], [ -121.476735454205922, 47.400570558502345 ], [ -121.476730534091232, 47.400300748214171 ], [ -121.475538370809133, 47.400310765428365 ], [ -121.47553345556463, 47.400040954199284 ], [ -121.473149141287479, 47.400060952697721 ], [ -121.473154045546238, 47.400330764022826 ], [ -121.471167105562515, 47.400347392108351 ], [ -121.471171998288668, 47.40061720352972 ], [ -121.46918504678284, 47.400633796869883 ], [ -121.469189930625362, 47.400903608372559 ], [ -121.46402382474335, 47.400946594021434 ], [ -121.464028681963313, 47.401216405749352 ], [ -121.462041706781363, 47.40123287745687 ], [ -121.462046553792277, 47.401502689272789 ], [ -121.461945109869248, 47.401503529292484 ], [ -121.461950076976777, 47.400695059205852 ], [ -121.461951334827347, 47.40015421897877 ], [ -121.46202231924849, 47.40015363112056 ], [ -121.462419705383368, 47.40015033963811 ], [ -121.462414856570859, 47.399880527853242 ], [ -121.46281224192856, 47.39987723498723 ], [ -121.463209627235884, 47.399873940727957 ], [ -121.463204774370382, 47.39960412897986 ], [ -121.463999540731692, 47.399597536315852 ], [ -121.463989826944058, 47.399057912896374 ], [ -121.464387205956967, 47.399054615407998 ], [ -121.464377488266678, 47.398514992033981 ], [ -121.464774863115338, 47.398511692287173 ], [ -121.464755420119872, 47.397432444741945 ], [ -121.464358053477113, 47.397435744420413 ], [ -121.464348336389094, 47.396896121080388 ], [ -121.463950973799257, 47.396899419331611 ], [ -121.463946117370924, 47.396629606749428 ], [ -121.463548756782544, 47.396632903590401 ], [ -121.463543902466682, 47.396363091893406 ], [ -121.463146543879432, 47.396366387324129 ], [ -121.463141691665285, 47.396096575612994 ], [ -121.462346977118699, 47.396103162268354 ], [ -121.461946385310426, 47.396106480472717 ], [ -121.461926809637575, 47.393159628607769 ], [ -121.461908531655453, 47.390407592021198 ], [ -121.461889485593346, 47.388561241825322 ], [ -121.46186913255589, 47.386587977865204 ], [ -121.461809640819453, 47.385627802891527 ], [ -121.461770013949007, 47.382333553088259 ], [ -121.461989824812491, 47.37204592763274 ], [ -121.461989659359574, 47.372045928550932 ], [ -121.462015304266146, 47.370822540623458 ], [ -121.462016966787218, 47.370739650457878 ], [ -121.462288626551072, 47.370737399255738 ], [ -121.462264399784118, 47.369388323260871 ], [ -121.462661558679301, 47.369385030897988 ], [ -121.462656711428636, 47.369115215906291 ], [ -121.463451024970524, 47.369108627037249 ], [ -121.463455876319657, 47.369378441994897 ], [ -121.464647352404668, 47.369368548196817 ], [ -121.464642496231349, 47.369098733283067 ], [ -121.465039652776539, 47.369095432582405 ], [ -121.465034793280211, 47.368825617696537 ], [ -121.465431947726159, 47.368822315620648 ], [ -121.46542222478493, 47.368282685893462 ], [ -121.465819376406159, 47.368279382451888 ], [ -121.465780471546779, 47.366120861114261 ], [ -121.46538333764299, 47.366124164411694 ], [ -121.465368754790163, 47.365314718132744 ], [ -121.464971625659629, 47.365318019994 ], [ -121.464961909423351, 47.364778388517905 ], [ -121.464564784340595, 47.364781688952533 ], [ -121.464559927684633, 47.364511873206474 ], [ -121.467339786563727, 47.364488742850249 ], [ -121.467344656227979, 47.364758557584693 ], [ -121.469330278089103, 47.36474199546128 ], [ -121.469325398169119, 47.364472179913143 ], [ -121.469722519275777, 47.364468862794944 ], [ -121.469712754176086, 47.363929232650563 ], [ -121.47010987245811, 47.363925914166842 ], [ -121.4700903359807, 47.362846653082983 ], [ -121.469693225883276, 47.362849970598539 ], [ -121.469683461377187, 47.362310339597855 ], [ -121.468889249237307, 47.362316971282944 ], [ -121.468884370495758, 47.362047155757431 ], [ -121.46729595380728, 47.362060402351709 ], [ -121.467291083310997, 47.361790586761252 ], [ -121.465305570256348, 47.361807114948803 ], [ -121.465300710043309, 47.361537298377023 ], [ -121.464506509101525, 47.361543900228831 ], [ -121.464487085173403, 47.360464636539739 ], [ -121.464884177474545, 47.360461336378236 ], [ -121.464864747466478, 47.359382071909096 ], [ -121.464467662036057, 47.359385372009569 ], [ -121.464462806382755, 47.359115556335937 ], [ -121.463271558584296, 47.359125448218357 ], [ -121.463266709115899, 47.358855631597763 ], [ -121.462869627582322, 47.35885892609538 ], [ -121.462864780223072, 47.358589110360938 ], [ -121.462070622427163, 47.358595695138035 ], [ -121.462060936042036, 47.358056062712606 ], [ -121.462458010195235, 47.358052770158437 ], [ -121.462453165034816, 47.357782954418077 ], [ -121.462850238424053, 47.357779661380803 ], [ -121.462840544134266, 47.3572400281464 ], [ -121.46323761337672, 47.357236733751094 ], [ -121.463218215890834, 47.356157468301866 ], [ -121.46361527688957, 47.356154172582684 ], [ -121.463595873312983, 47.355074905455481 ], [ -121.463992926068585, 47.355071608412374 ], [ -121.46396866248584, 47.353722524898522 ], [ -121.463571619971248, 47.353725821856401 ], [ -121.463566769455156, 47.353456005327821 ], [ -121.46316972893888, 47.35345930087658 ], [ -121.463164880520964, 47.353189484334692 ], [ -121.462767840679206, 47.353192778481734 ], [ -121.462762994348722, 47.352922961027275 ], [ -121.462092454291408, 47.35292852156438 ], [ -121.462092238134446, 47.352887459484919 ], [ -121.462067734591457, 47.348341151566601 ], [ -121.462283608758639, 47.348339361850947 ], [ -121.4622787653758, 47.348069544449054 ], [ -121.46267576635698, 47.348066252017865 ], [ -121.462666075645814, 47.347526617260087 ], [ -121.462269078760201, 47.34752990965719 ], [ -121.462273922042939, 47.347799727051147 ], [ -121.462064826064875, 47.347801460578097 ], [ -121.462041062506103, 47.343391602115645 ], [ -121.461936844381825, 47.33937742370027 ], [ -121.465913553052474, 47.33941738338536 ], [ -121.472381183083598, 47.339326730200135 ], [ -121.472445301330382, 47.339326614990419 ], [ -121.483749982066954, 47.339305628139904 ], [ -121.485917251318227, 47.339300155236444 ], [ -121.487553671865911, 47.33929599352949 ], [ -121.504758975567327, 47.339350120828691 ], [ -121.508763604221514, 47.339365021516308 ], [ -121.508763656684636, 47.339365023944886 ], [ -121.526041766685267, 47.339590560433898 ], [ -121.530037853315974, 47.339566422642079 ], [ -121.530038010635622, 47.339566424415537 ], [ -121.547241933871064, 47.339668528116533 ], [ -121.54724217584527, 47.339668526590643 ], [ -121.551124856754271, 47.33964431568436 ], [ -121.551125098728221, 47.339644314150171 ], [ -121.56854112066317, 47.33965599165721 ], [ -121.568541273913112, 47.339655990661974 ], [ -121.572167711999668, 47.339669111098942 ], [ -121.572167845085048, 47.33966911023041 ], [ -121.589835733531615, 47.339828781179094 ], [ -121.589835777893526, 47.339828780882662 ], [ -121.590002972378514, 47.35017853014412 ], [ -121.589382316563686, 47.350184357718305 ], [ -121.589387799981594, 47.350454169453464 ], [ -121.589784809351485, 47.350450442171422 ], [ -121.589790294873552, 47.350720253891126 ] ], [ [ -121.579858893588693, 47.409642402359246 ], [ -121.57946144296956, 47.409646095688835 ], [ -121.579456003383356, 47.409376289924445 ], [ -121.579058556085215, 47.409379981832807 ], [ -121.579069431196629, 47.409919592502838 ], [ -121.579864335270599, 47.40991220720759 ], [ -121.579858893588693, 47.409642402359246 ] ], [ [ -121.58859377842532, 47.350461619859502 ], [ -121.588588299103037, 47.350191808085732 ], [ -121.587000264839759, 47.350206693007991 ], [ -121.587005735971104, 47.350476504858726 ], [ -121.587402747003495, 47.350472785919486 ], [ -121.587408220239112, 47.350742597754845 ], [ -121.587805233249938, 47.350738876504927 ], [ -121.587799756656111, 47.350469065597061 ], [ -121.588196767562536, 47.350465342974516 ], [ -121.588202244893637, 47.350735154771314 ], [ -121.589393283455934, 47.35072398119248 ], [ -121.589387799981594, 47.350454169453464 ], [ -121.58859377842532, 47.350461619859502 ] ], [ [ -121.586994792454121, 47.349936882069301 ], [ -121.586597785460853, 47.349940599578176 ], [ -121.586592316489998, 47.34967078771588 ], [ -121.586195311487813, 47.349674503813631 ], [ -121.586189844621146, 47.349404691935959 ], [ -121.585792841623231, 47.34940840752197 ], [ -121.585787375537024, 47.349138595637669 ], [ -121.584993373454623, 47.349146021696093 ], [ -121.58499883544539, 47.349415833618878 ], [ -121.585395838555939, 47.349412120816623 ], [ -121.585401301327437, 47.349681932732814 ], [ -121.585798306442342, 47.349678219418855 ], [ -121.585809237560014, 47.350217842316098 ], [ -121.587000264839759, 47.350206693007991 ], [ -121.586994792454121, 47.349936882069301 ] ], [ [ -121.584987912843559, 47.348876209768441 ], [ -121.584193914630802, 47.348883630220989 ], [ -121.584188456847897, 47.348613818267552 ], [ -121.583394462505353, 47.348621233114194 ], [ -121.583389008874036, 47.348351421126253 ], [ -121.581404032290365, 47.348369935138138 ], [ -121.581398588953007, 47.348100123058202 ], [ -121.581001595505256, 47.348103820946278 ], [ -121.581007036807549, 47.348373633944767 ], [ -121.58061004125598, 47.348377330460067 ], [ -121.580615480566806, 47.3486471434815 ], [ -121.582203470575564, 47.348632345394691 ], [ -121.582208918120457, 47.348902157443987 ], [ -121.583796915433453, 47.348887337909723 ], [ -121.583802369901647, 47.349157149894964 ], [ -121.584993373454623, 47.349146021696093 ], [ -121.584987912843559, 47.348876209768441 ] ], [ [ -121.580604602013977, 47.348107518341934 ], [ -121.578222638577913, 47.348129674394521 ], [ -121.578228065534418, 47.348399486627294 ], [ -121.579022058539422, 47.348392106200365 ], [ -121.579027489647203, 47.348661918398818 ], [ -121.579821485212648, 47.348654533274242 ], [ -121.579816050009882, 47.348384721113987 ], [ -121.58061004125598, 47.348377330460067 ], [ -121.580604602013977, 47.348107518341934 ] ], [ [ -121.576640081473613, 47.348414228962419 ], [ -121.576645500308459, 47.348684042174746 ], [ -121.578233492546914, 47.348669298863911 ], [ -121.578228065534418, 47.348399486627294 ], [ -121.576640081473613, 47.348414228962419 ] ], [ [ -121.576248502105813, 47.348687724297918 ], [ -121.576237668612819, 47.348148099637804 ], [ -121.575840673126294, 47.348151780339634 ], [ -121.575835258511205, 47.347881967996315 ], [ -121.574644281841586, 47.347893002566899 ], [ -121.574649690313905, 47.348162814967282 ], [ -121.573855701497493, 47.348170164726056 ], [ -121.573861105930433, 47.348439977168333 ], [ -121.573464109397491, 47.348443650428628 ], [ -121.573474916981951, 47.348983275345532 ], [ -121.573871917623109, 47.348979602946592 ], [ -121.573866511742352, 47.348709789605813 ], [ -121.574263510280204, 47.348706115833991 ], [ -121.574258103743858, 47.348436303406878 ], [ -121.575052096543899, 47.348428950826239 ], [ -121.575046684644647, 47.348159138449731 ], [ -121.575443678907121, 47.348155459640935 ], [ -121.575449092866535, 47.348425272897821 ], [ -121.575846089120418, 47.348421592678115 ], [ -121.575856919953097, 47.34896121737529 ], [ -121.576650920509607, 47.348953854482801 ], [ -121.576645500308459, 47.348684042174746 ], [ -121.576248502105813, 47.348687724297918 ] ], [ [ -121.57228391474986, 47.348994285989725 ], [ -121.572278517072618, 47.348724473472366 ], [ -121.571087520482251, 47.348735471532606 ], [ -121.571082129003557, 47.348465658962191 ], [ -121.570288135102061, 47.348472984604548 ], [ -121.570293522485528, 47.348742797212878 ], [ -121.570690521511551, 47.348739135068683 ], [ -121.570695910998381, 47.349008947661865 ], [ -121.57148991299168, 47.349001620059283 ], [ -121.571495305305803, 47.349271432627035 ], [ -121.573480319534511, 47.349253087818362 ], [ -121.573474916981951, 47.348983275345532 ], [ -121.57228391474986, 47.348994285989725 ] ], [ [ -121.569102525073788, 47.348753775294078 ], [ -121.569097143833247, 47.348483962629004 ], [ -121.568700145309052, 47.348487619195282 ], [ -121.568705525825465, 47.348757431870702 ], [ -121.568308525198248, 47.348761087064048 ], [ -121.568303148052919, 47.348491274361109 ], [ -121.566715158486204, 47.348505882004886 ], [ -121.566720527440978, 47.348775694783384 ], [ -121.567911525838952, 47.348764740856872 ], [ -121.567916902315403, 47.349034553573972 ], [ -121.570298909924588, 47.349012609825003 ], [ -121.570293522485528, 47.348742797212878 ], [ -121.569102525073788, 47.348753775294078 ] ], [ [ -121.566709789574034, 47.348236068330863 ], [ -121.566312794100995, 47.348239717417876 ], [ -121.566307427304594, 47.347969904628215 ], [ -121.565910432487527, 47.347973551413538 ], [ -121.56590506779412, 47.347703738608921 ], [ -121.563920108436307, 47.347721953327614 ], [ -121.563925464215174, 47.347991766217966 ], [ -121.565116445347087, 47.347980841690784 ], [ -121.56512180600069, 47.348250654537026 ], [ -121.5659157985598, 47.348243364213417 ], [ -121.565921163363953, 47.348513177025772 ], [ -121.566715158486204, 47.348505882004886 ], [ -121.566709789574034, 47.348236068330863 ] ], [ [ -121.563528470389784, 47.34799540464347 ], [ -121.563533822865551, 47.348265218464377 ], [ -121.563136826937381, 47.348268855516835 ], [ -121.563142178731624, 47.348538668452576 ], [ -121.560760188444803, 47.348560465256604 ], [ -121.560770867627042, 47.349100091365202 ], [ -121.561167870028981, 47.349096462607712 ], [ -121.561162528362715, 47.348826649570235 ], [ -121.563544529280847, 47.348804844310614 ], [ -121.563539176707309, 47.348535031381324 ], [ -121.563936174615392, 47.348531392018685 ], [ -121.563925464215174, 47.347991766217966 ], [ -121.563528470389784, 47.34799540464347 ] ], [ [ -121.578258225310421, 47.409117556566912 ], [ -121.578263660008659, 47.409387362377274 ], [ -121.578661107406177, 47.409383672356419 ], [ -121.578655671993417, 47.409113867455829 ], [ -121.578258225310421, 47.409117556566912 ] ], [ [ -121.569014597715295, 47.404075714927529 ], [ -121.569412008006708, 47.404072057316924 ], [ -121.569406619571637, 47.403802251140284 ], [ -121.569009211332073, 47.403805908731968 ], [ -121.569014597715295, 47.404075714927529 ] ], [ [ -121.569003825004515, 47.403536102539029 ], [ -121.568606420086113, 47.403539758709876 ], [ -121.568611804361851, 47.403809564921723 ], [ -121.569009211332073, 47.403805908731968 ], [ -121.569003825004515, 47.403536102539029 ] ], [ [ -121.498516334349361, 47.396337579706618 ], [ -121.498521365277924, 47.396607390800142 ], [ -121.498918723458473, 47.396603974043025 ], [ -121.498913690490326, 47.396334163866548 ], [ -121.498516334349361, 47.396337579706618 ] ], [ [ -121.499311047892334, 47.396330745726161 ], [ -121.499306012924478, 47.396060935570191 ], [ -121.498908658887004, 47.396064352785693 ], [ -121.498913690490326, 47.396334163866548 ], [ -121.499311047892334, 47.396330745726161 ] ], [ [ -121.520721945028541, 47.393715878686194 ], [ -121.520727086382053, 47.393985688776766 ], [ -121.521521762590666, 47.393978702644795 ], [ -121.521516615810384, 47.393708892598397 ], [ -121.520721945028541, 47.393715878686194 ] ], [ [ -121.53578935758047, 47.391963357109184 ], [ -121.536186679338755, 47.391959813280877 ], [ -121.536181459692628, 47.391690003912579 ], [ -121.535784139985211, 47.391693547722596 ], [ -121.53578935758047, 47.391963357109184 ] ], [ [ -121.535778922443924, 47.391423738338901 ], [ -121.535381604733473, 47.391427280737453 ], [ -121.535386820223906, 47.391697090139488 ], [ -121.535784139985211, 47.391693547722596 ], [ -121.535778922443924, 47.391423738338901 ] ], [ [ -121.53498950040894, 47.391700631163452 ], [ -121.534994713902108, 47.391970440586704 ], [ -121.53539203576824, 47.391966899544414 ], [ -121.535386820223906, 47.391697090139488 ], [ -121.53498950040894, 47.391700631163452 ] ], [ [ -121.576663015571754, 47.408862494066163 ], [ -121.577060459102, 47.408858810556509 ], [ -121.57705503199756, 47.408589004685211 ], [ -121.576657590519503, 47.408592688175823 ], [ -121.576663015571754, 47.408862494066163 ] ], [ [ -121.577452474744319, 47.408585319792614 ], [ -121.577457903900836, 47.40885512564477 ], [ -121.577855348631246, 47.408851438440216 ], [ -121.577839053860885, 47.40804202185663 ], [ -121.577441616612148, 47.408045708995317 ], [ -121.577447045643893, 47.408315513942981 ], [ -121.577049604948982, 47.408319198816599 ], [ -121.57705503199756, 47.408589004685211 ], [ -121.577452474744319, 47.408585319792614 ] ], [ [ -121.576652164211154, 47.408322883196185 ], [ -121.576254724729296, 47.408326565274294 ], [ -121.576260147673295, 47.408596371181069 ], [ -121.576657590519503, 47.408592688175823 ], [ -121.576652164211154, 47.408322883196185 ] ], [ [ -121.534205280790061, 47.392247328846132 ], [ -121.534602604802728, 47.39224378967225 ], [ -121.534597391982146, 47.391973980235896 ], [ -121.534200070020489, 47.39197751939156 ], [ -121.534205280790061, 47.392247328846132 ] ], [ [ -121.534189651291541, 47.391437900474706 ], [ -121.533792333366179, 47.391441437301388 ], [ -121.533787124808995, 47.391171627837238 ], [ -121.532595176874494, 47.391182230803651 ], [ -121.532600379278875, 47.391452040322626 ], [ -121.533395015386702, 47.391444972734973 ], [ -121.533400220622312, 47.391714782228547 ], [ -121.533797540652671, 47.391711246776566 ], [ -121.533802747993022, 47.391981056254743 ], [ -121.534200070020489, 47.39197751939156 ], [ -121.534189651291541, 47.391437900474706 ] ], [ [ -121.486604993632284, 47.353802169299399 ], [ -121.486619894085635, 47.35461161686036 ], [ -121.487811037304667, 47.354601484779359 ], [ -121.487806065618258, 47.354331669266521 ], [ -121.488203111207014, 47.354328289139453 ], [ -121.488198136200282, 47.354058473655584 ], [ -121.487007004089676, 47.354068608916151 ], [ -121.487002036602163, 47.35379879337593 ], [ -121.486604993632284, 47.353802169299399 ] ], [ [ -121.486590094963447, 47.352992721764906 ], [ -121.486580161887886, 47.352453089799596 ], [ -121.486183130430547, 47.352456464236077 ], [ -121.486188093565673, 47.352726279792243 ], [ -121.485791060009234, 47.352729652854158 ], [ -121.485796022482191, 47.352999469323358 ], [ -121.485398986826326, 47.353002841010699 ], [ -121.48539402640148, 47.352733024524042 ], [ -121.484996991419138, 47.352736394809597 ], [ -121.484992033104731, 47.352466579208681 ], [ -121.484595001442656, 47.352469948077143 ], [ -121.48459995770898, 47.352739763695432 ], [ -121.483805888812114, 47.352746497298632 ], [ -121.483815793317106, 47.35328612951573 ], [ -121.484212831225747, 47.353282763379113 ], [ -121.484217785597451, 47.353552579026243 ], [ -121.485408906483798, 47.353542472204289 ], [ -121.485403945967789, 47.353272656609406 ], [ -121.486198022647741, 47.353265911800086 ], [ -121.486193058086755, 47.352996096243942 ], [ -121.486590094963447, 47.352992721764906 ] ], [ [ -121.492133612415415, 47.352135890679797 ], [ -121.492138606230668, 47.352405706868993 ], [ -121.492535636928565, 47.352402312451588 ], [ -121.492545630122038, 47.352941943899083 ], [ -121.492942664853103, 47.352938547155127 ], [ -121.492947664242791, 47.353208363312866 ], [ -121.493344700970169, 47.353204965159222 ], [ -121.493339700867125, 47.352935149910721 ], [ -121.493736735506261, 47.352931751282085 ], [ -121.493741737657231, 47.353201566513 ], [ -121.494138775616193, 47.353198166467088 ], [ -121.494143779878286, 47.35346798258356 ], [ -121.495334896931197, 47.353457773156542 ], [ -121.495329886536283, 47.353187957992247 ], [ -121.495726922965204, 47.353184552385841 ], [ -121.495716898222923, 47.352644921204572 ], [ -121.494922832182212, 47.352651730962606 ], [ -121.49491782399042, 47.352381915792144 ], [ -121.492932668886723, 47.35239891573498 ], [ -121.492927670986631, 47.352129100480369 ], [ -121.492133612415415, 47.352135890679797 ] ], [ [ -121.542214751548968, 47.395414006311803 ], [ -121.542612099107075, 47.395410439955505 ], [ -121.542596341118241, 47.394601014419919 ], [ -121.542199001026219, 47.394604579813091 ], [ -121.542214751548968, 47.395414006311803 ] ], [ [ -121.542162249492037, 47.392715917797901 ], [ -121.542559576538608, 47.392712351626272 ], [ -121.542554323926083, 47.392442543442996 ], [ -121.541362348752955, 47.392453235924819 ], [ -121.541357103660047, 47.392183426781465 ], [ -121.54095978055318, 47.392186988737251 ], [ -121.540954536241088, 47.391917179586692 ], [ -121.540557215130846, 47.391920740130971 ], [ -121.540551974248444, 47.391650930956679 ], [ -121.540154653798481, 47.391654489198437 ], [ -121.540159893954396, 47.391924298382932 ], [ -121.538173287309476, 47.391942072345046 ], [ -121.538183747273777, 47.392481690906799 ], [ -121.537389096038424, 47.392488791173875 ], [ -121.537383870131251, 47.392218981854811 ], [ -121.537781193724939, 47.392215432436096 ], [ -121.537775965820899, 47.391945623138383 ], [ -121.537378644278306, 47.391949172538645 ], [ -121.537373418479049, 47.391679363225514 ], [ -121.536976098933593, 47.391682911214353 ], [ -121.536981322681669, 47.391952720545959 ], [ -121.536584001031088, 47.391956267160175 ], [ -121.536594444587166, 47.39249588586884 ], [ -121.536991770339739, 47.392492339217902 ], [ -121.536996994249762, 47.392762148558219 ], [ -121.538586304924337, 47.392747947950596 ], [ -121.53858107281026, 47.3924781386837 ], [ -121.538978398305062, 47.392474585967037 ], [ -121.538973164194061, 47.392204776721449 ], [ -121.540562457391857, 47.392190549300039 ], [ -121.540567699707069, 47.392460358471929 ], [ -121.540965023594879, 47.392456797899072 ], [ -121.540970268015229, 47.392726607055529 ], [ -121.541367595224202, 47.39272304506283 ], [ -121.541372841749833, 47.392992854203776 ], [ -121.541770169631164, 47.392989290807925 ], [ -121.541801659567724, 47.394608144720912 ], [ -121.542199001026219, 47.394604579813091 ], [ -121.542162249492037, 47.392715917797901 ] ], [ [ -121.575454424176925, 47.408064120224722 ], [ -121.575851863043567, 47.408060440943736 ], [ -121.575841020215165, 47.40752082911353 ], [ -121.575443585452788, 47.407524508356403 ], [ -121.575454424176925, 47.408064120224722 ] ], [ [ -121.575432746965475, 47.406984897397834 ], [ -121.575035316251359, 47.40698857520924 ], [ -121.575046150647381, 47.407528187105264 ], [ -121.575443585452788, 47.407524508356403 ], [ -121.575432746965475, 47.406984897397834 ] ], [ [ -121.575024483404079, 47.406448963314908 ], [ -121.574627056750913, 47.406452640594281 ], [ -121.574637886806286, 47.40699225161864 ], [ -121.575035316251359, 47.40698857520924 ], [ -121.575024483404079, 47.406448963314908 ] ], [ [ -121.575421910013944, 47.406445285541565 ], [ -121.575389396515206, 47.404826449162044 ], [ -121.574991982230202, 47.404830127720565 ], [ -121.575008231902814, 47.405639545510319 ], [ -121.574610811405861, 47.405643222732621 ], [ -121.574616226906528, 47.405913028680992 ], [ -121.57501364945567, 47.405909351439682 ], [ -121.575024483404079, 47.406448963314908 ], [ -121.575421910013944, 47.406445285541565 ] ], [ [ -121.574986566213326, 47.40456032089368 ], [ -121.574589152599316, 47.40456399804853 ], [ -121.574583738703055, 47.404294192104615 ], [ -121.574981148940381, 47.404290514977454 ], [ -121.574975733048106, 47.404020709055253 ], [ -121.573386098620347, 47.40403540733795 ], [ -121.57338068966672, 47.403765601350919 ], [ -121.572188469077332, 47.403776609928812 ], [ -121.5721830663351, 47.403506803887488 ], [ -121.571785661862137, 47.403510471204619 ], [ -121.571780261214769, 47.403240664247654 ], [ -121.570985454880557, 47.403247994672746 ], [ -121.57099085141148, 47.403517800768242 ], [ -121.569798635999476, 47.403528786008835 ], [ -121.569804026430745, 47.40379859216393 ], [ -121.57059884130652, 47.40379127002273 ], [ -121.570604234585105, 47.404061077050521 ], [ -121.571001644653691, 47.404057413866674 ], [ -121.57099624801117, 47.403787607765878 ], [ -121.571791062552578, 47.403780277264907 ], [ -121.57179646197406, 47.404050083336443 ], [ -121.571399053341821, 47.4040537492982 ], [ -121.571409850910527, 47.40459336236939 ], [ -121.57180726364642, 47.404589696369747 ], [ -121.57180186278876, 47.404319890301458 ], [ -121.572596685314608, 47.404312554151396 ], [ -121.572591280408787, 47.404042748123736 ], [ -121.572988688873849, 47.404039077982084 ], [ -121.573004908602073, 47.404848496924011 ], [ -121.573402323179664, 47.404844826231411 ], [ -121.573391506305057, 47.404305213336173 ], [ -121.573788916723046, 47.404301541288291 ], [ -121.573794327840261, 47.404571347261545 ], [ -121.574191740241176, 47.404567672902083 ], [ -121.574197153479119, 47.404837479758292 ], [ -121.574991982230202, 47.404830127720565 ], [ -121.574986566213326, 47.40456032089368 ] ], [ [ -121.572607493981536, 47.404852167122648 ], [ -121.572618302859055, 47.405391779205026 ], [ -121.573015721596263, 47.405388109867793 ], [ -121.573004908602073, 47.404848496924011 ], [ -121.572607493981536, 47.404852167122648 ] ], [ [ -121.489890955912173, 47.359711062944257 ], [ -121.489885973007915, 47.35944124744816 ], [ -121.489488888705466, 47.359444633476265 ], [ -121.489483907901075, 47.359174817966469 ], [ -121.489086825595948, 47.359178202584815 ], [ -121.489081845568023, 47.358908387068759 ], [ -121.487890607125649, 47.358918531603571 ], [ -121.487885633305893, 47.358648716938163 ], [ -121.487488554892209, 47.358652095952806 ], [ -121.4874935266634, 47.358921910635772 ], [ -121.487096447473704, 47.358925288268054 ], [ -121.487101415924101, 47.35919510297979 ], [ -121.486704334634467, 47.359198479237342 ], [ -121.486729172740937, 47.360547555606004 ], [ -121.487126264273641, 47.36054417926109 ], [ -121.487131234355331, 47.360813993987186 ], [ -121.487925422698936, 47.360807237977376 ], [ -121.487930395605488, 47.361077052679818 ], [ -121.488724587841375, 47.361070291066085 ], [ -121.488729566220314, 47.361340105729418 ], [ -121.489920858343453, 47.361329952376373 ], [ -121.489895940180119, 47.359980877536792 ], [ -121.490293027215998, 47.359977490988527 ], [ -121.490288042211702, 47.359707675506336 ], [ -121.489890955912173, 47.359711062944257 ] ], [ [ -121.475963447402492, 47.358209857634066 ], [ -121.475953620359974, 47.35767022550246 ], [ -121.475556549944841, 47.357673563574259 ], [ -121.475551638548097, 47.357403747496775 ], [ -121.474757499015496, 47.357410419444456 ], [ -121.474752591766361, 47.357140603336084 ], [ -121.473958457451772, 47.357147269673163 ], [ -121.473968263807151, 47.357686901962602 ], [ -121.472379976859813, 47.357700218076225 ], [ -121.472394662190752, 47.35850966674478 ], [ -121.471997585174719, 47.35851299233881 ], [ -121.472007371539959, 47.359052623938013 ], [ -121.472404453976509, 47.359049298302118 ], [ -121.47240934927774, 47.359319113640311 ], [ -121.47280643238885, 47.359315786602494 ], [ -121.472811329800393, 47.359585602826535 ], [ -121.473208416222107, 47.359582273472441 ], [ -121.473203516772983, 47.359312458164908 ], [ -121.47399768406585, 47.359305797120705 ], [ -121.474002587612105, 47.359575612393755 ], [ -121.474399672569191, 47.3595722797698 ], [ -121.474404578225716, 47.359842095928634 ], [ -121.475198753409401, 47.359835426462212 ], [ -121.475193843655688, 47.359565610337839 ], [ -121.475988014550396, 47.359558936236489 ], [ -121.4759732746368, 47.35874948888118 ], [ -121.476370353194994, 47.358746149348015 ], [ -121.476360523187267, 47.358206518128029 ], [ -121.475963447402492, 47.358209857634066 ] ], [ [ -121.493020510023428, 47.378574294000096 ], [ -121.493010507117987, 47.37803466907647 ], [ -121.492613285736553, 47.378038065139876 ], [ -121.492608287067412, 47.37776825221178 ], [ -121.492211067684437, 47.377771646865042 ], [ -121.492206071117025, 47.3775018339227 ], [ -121.491808853732351, 47.377505227165642 ], [ -121.49180385926627, 47.377235414209053 ], [ -121.491009428453509, 47.3772421973812 ], [ -121.491014418819532, 47.377512010372925 ], [ -121.490617201291599, 47.377515400337359 ], [ -121.490627179391083, 47.378055025458593 ], [ -121.490229957711819, 47.3780584140653 ], [ -121.490234944132396, 47.378328227101903 ], [ -121.489837721664287, 47.37833161342644 ], [ -121.489857662298391, 47.379410864760658 ], [ -121.490254892966661, 47.379407478366019 ], [ -121.490259880968949, 47.379677291411156 ], [ -121.489862646926184, 47.379680677831004 ], [ -121.489867632930014, 47.37995049089686 ], [ -121.490264867687145, 47.379947103567758 ], [ -121.490274842624771, 47.380486729681778 ], [ -121.49067208275487, 47.380483340917181 ], [ -121.490677071688992, 47.380753153965337 ], [ -121.491471554582262, 47.380746373129952 ], [ -121.491466561547767, 47.380476560116918 ], [ -121.492261040145706, 47.38046977464515 ], [ -121.492256043062326, 47.380199961670449 ], [ -121.493050517353808, 47.380193170662793 ], [ -121.493045516221841, 47.379923357726398 ], [ -121.493442751901952, 47.379919960147241 ], [ -121.493417735453249, 47.378570896508769 ], [ -121.493020510023428, 47.378574294000096 ] ], [ [ -121.511196059597665, 47.394338908968649 ], [ -121.510798719436323, 47.394342367870422 ], [ -121.510803810940303, 47.394612178408302 ], [ -121.511201154477348, 47.394608719480722 ], [ -121.511206248085131, 47.39487853000351 ], [ -121.512398283221358, 47.39486814571579 ], [ -121.512382982793767, 47.394058716123851 ], [ -121.511190966106739, 47.394069099350972 ], [ -121.511196059597665, 47.394338908968649 ] ], [ [ -121.510009125021199, 47.394619091176843 ], [ -121.510004037619723, 47.394349280603258 ], [ -121.509209354268549, 47.394356187771706 ], [ -121.509214438892144, 47.394625998373137 ], [ -121.508817095092297, 47.394629450335273 ], [ -121.508812013844633, 47.394359639708121 ], [ -121.508414672043557, 47.394363090259311 ], [ -121.508409591574846, 47.394093279625011 ], [ -121.506820234688576, 47.394107066912547 ], [ -121.506815162488664, 47.393837257109169 ], [ -121.506020486503132, 47.393844141917029 ], [ -121.506025554612251, 47.394113952655424 ], [ -121.506422894676575, 47.394110510480516 ], [ -121.506427964889198, 47.394380321203904 ], [ -121.507222647638628, 47.394373432647093 ], [ -121.507227722006093, 47.394643243337804 ], [ -121.507625064691112, 47.3946397969559 ], [ -121.507619989596975, 47.394369986275144 ], [ -121.508017330178234, 47.394366538517971 ], [ -121.508022408648259, 47.394636349172998 ], [ -121.508419752553067, 47.394632899997063 ], [ -121.508424831802174, 47.394902710645006 ], [ -121.51080890380949, 47.394881988041696 ], [ -121.510803810940303, 47.394612178408302 ], [ -121.510009125021199, 47.394619091176843 ] ], [ [ -121.504436195156501, 47.39412770741643 ], [ -121.504441256437701, 47.394397518221012 ], [ -121.504043914060688, 47.394400953448311 ], [ -121.504028740512823, 47.393591521865787 ], [ -121.503631404237154, 47.393594955646584 ], [ -121.503621291581311, 47.393055334878262 ], [ -121.503223960680074, 47.393058767222747 ], [ -121.50323406790929, 47.393598388034434 ], [ -121.502439396433161, 47.393605249522565 ], [ -121.502444446029386, 47.393875060417969 ], [ -121.503239121607834, 47.39386819889441 ], [ -121.503244175358631, 47.394138009757263 ], [ -121.503641515788871, 47.394134577333894 ], [ -121.503646571631492, 47.394404387282535 ], [ -121.502454545366774, 47.394414681318224 ], [ -121.502449495666255, 47.394144870416923 ], [ -121.501654815776703, 47.394151726403685 ], [ -121.501659861374634, 47.394421537340399 ], [ -121.50205720405333, 47.394418109572271 ], [ -121.502062251754751, 47.394687920494142 ], [ -121.504843659497851, 47.394663892406001 ], [ -121.504838597437683, 47.394394081608475 ], [ -121.506030622773679, 47.394383763396725 ], [ -121.506025554612251, 47.394113952655424 ], [ -121.504436195156501, 47.39412770741643 ] ], [ [ -121.502434345564595, 47.393335438637834 ], [ -121.50163967798207, 47.393342294518163 ], [ -121.501634631267891, 47.393072483600861 ], [ -121.500839967579168, 47.393079333873594 ], [ -121.500850051530691, 47.393618955789684 ], [ -121.502439396433161, 47.393605249522565 ], [ -121.502434345564595, 47.393335438637834 ] ], [ [ -121.500070492765801, 47.394435232667938 ], [ -121.500075530199595, 47.394705042778995 ], [ -121.501664908337929, 47.394691347372849 ], [ -121.501659861374634, 47.394421537340399 ], [ -121.500070492765801, 47.394435232667938 ] ], [ [ -121.498088807355145, 47.39472213113595 ], [ -121.498083780177552, 47.394452320936423 ], [ -121.4976864369672, 47.394455733874352 ], [ -121.497681410568433, 47.394185923667798 ], [ -121.497284070693496, 47.394189336086669 ], [ -121.497279046386211, 47.393919524965987 ], [ -121.496087029943467, 47.393929752927093 ], [ -121.49609706497813, 47.394469375284949 ], [ -121.495699722844577, 47.394472782149066 ], [ -121.495704739039198, 47.394742592446654 ], [ -121.495307393478214, 47.394745997943119 ], [ -121.495312407684835, 47.395015809160668 ], [ -121.496107101533184, 47.395008996747215 ], [ -121.496102083224002, 47.394739185564909 ], [ -121.496499428692772, 47.394735778181726 ], [ -121.496494408384393, 47.39446596701999 ], [ -121.497289093716716, 47.394459146318525 ], [ -121.497294118127769, 47.394728957445025 ], [ -121.497691463429618, 47.39472554498316 ], [ -121.497696488619326, 47.394995356102662 ], [ -121.500080569021364, 47.394974853784575 ], [ -121.500075530199595, 47.394705042778995 ], [ -121.498088807355145, 47.39472213113595 ] ], [ [ -121.494915061345139, 47.395019213273841 ], [ -121.494910049189855, 47.39474940203867 ], [ -121.494512703525189, 47.39475280474884 ], [ -121.494507693484152, 47.394482994398359 ], [ -121.49371300742682, 47.394489795596606 ], [ -121.493723019366826, 47.395029417270194 ], [ -121.494517713629222, 47.395022616001647 ], [ -121.494522723773713, 47.395292426357855 ], [ -121.495317421931603, 47.395285619481662 ], [ -121.495312407684835, 47.395015809160668 ], [ -121.494915061345139, 47.395019213273841 ] ], [ [ -121.493325672820248, 47.395032815810971 ], [ -121.493330676822154, 47.395302627119406 ], [ -121.493728025419998, 47.395299228561065 ], [ -121.493723019366826, 47.395029417270194 ], [ -121.493325672820248, 47.395032815810971 ] ], [ [ -121.493733031513543, 47.395569038955429 ], [ -121.494130383435476, 47.39556563897866 ], [ -121.494125375290537, 47.395295828601874 ], [ -121.493728025419998, 47.395299228561065 ], [ -121.493733031513543, 47.395569038955429 ] ], [ [ -121.513972338072591, 47.394044851715876 ], [ -121.513967230276094, 47.393775042226537 ], [ -121.515159239703024, 47.393764629798866 ], [ -121.515164353664559, 47.39403444013368 ], [ -121.515561691206614, 47.39403096682544 ], [ -121.515556575193855, 47.39376115650861 ], [ -121.515953911956373, 47.393757681817412 ], [ -121.515959030020383, 47.394027492116258 ], [ -121.518343059142907, 47.394006614622342 ], [ -121.51833792878368, 47.393736805330875 ], [ -121.517543257153292, 47.393743769129649 ], [ -121.517538130949276, 47.393473959805121 ], [ -121.517140796437602, 47.393477439151184 ], [ -121.517145920602076, 47.393747249393172 ], [ -121.516351248666012, 47.39375420573306 ], [ -121.516346128603701, 47.393484395455062 ], [ -121.514359456118925, 47.393501762747654 ], [ -121.514354346365096, 47.393231952382777 ], [ -121.513957013493766, 47.393235421465889 ], [ -121.513962121196329, 47.393505231848714 ], [ -121.512372782314912, 47.39351909521389 ], [ -121.512382982793767, 47.394058716123851 ], [ -121.513972338072591, 47.394044851715876 ] ], [ [ -121.511180777934911, 47.393529478333512 ], [ -121.510783442602644, 47.393532937189519 ], [ -121.510778351309085, 47.393263126663285 ], [ -121.509983684577335, 47.393270039260962 ], [ -121.509988773093227, 47.393539849815049 ], [ -121.51038610720606, 47.393536393753081 ], [ -121.510396288497802, 47.394076014834162 ], [ -121.511190966106739, 47.394069099350972 ], [ -121.511180777934911, 47.393529478333512 ] ], [ [ -121.564605541942029, 47.402227211876252 ], [ -121.564610906747035, 47.402497018254898 ], [ -121.564213508100565, 47.402500659032803 ], [ -121.564218869597084, 47.402770466340968 ], [ -121.563026669831871, 47.402781381253938 ], [ -121.56303202655323, 47.403051188612736 ], [ -121.562634623594036, 47.403054824754591 ], [ -121.562639978306223, 47.403324631235549 ], [ -121.563832190535919, 47.403313719490058 ], [ -121.563837550146786, 47.403583526825081 ], [ -121.564234957043226, 47.403579886465742 ], [ -121.564240318761236, 47.403849693784586 ], [ -121.564637727654414, 47.403846052013094 ], [ -121.564643091479709, 47.404115859315844 ], [ -121.565437911891024, 47.404108572463144 ], [ -121.565443279863103, 47.404378378831368 ], [ -121.566238102831761, 47.404371086376337 ], [ -121.566243476300272, 47.404640893600352 ], [ -121.567435716499205, 47.40462994486095 ], [ -121.567430338212361, 47.404360138584437 ], [ -121.56782774945313, 47.404356486536727 ], [ -121.567822369169946, 47.404086680281736 ], [ -121.568219779615447, 47.404083025951621 ], [ -121.568214397335993, 47.403813219718288 ], [ -121.567419581792635, 47.403820525139977 ], [ -121.567398068307455, 47.40274129919095 ], [ -121.566603268956456, 47.402748598888401 ], [ -121.565808469395989, 47.402755893912122 ], [ -121.565803099692232, 47.402486086679318 ], [ -121.565008304013574, 47.402493376092295 ], [ -121.565002938468922, 47.402223568824539 ], [ -121.564605541942029, 47.402227211876252 ] ], [ [ -121.564208146672016, 47.402230852626751 ], [ -121.563413353328713, 47.402238130864482 ], [ -121.56341871197867, 47.402507937299738 ], [ -121.564213508100565, 47.402500659032803 ], [ -121.564208146672016, 47.402230852626751 ] ], [ [ -121.563407996046351, 47.401968323524038 ], [ -121.563010601349902, 47.401971960983964 ], [ -121.563005246174441, 47.401702153627376 ], [ -121.562210462031075, 47.401709423421806 ], [ -121.56222116555459, 47.402249038204317 ], [ -121.562618561089025, 47.402245403520681 ], [ -121.562623915647833, 47.402515210892908 ], [ -121.56302131317851, 47.402511574797231 ], [ -121.563015957892631, 47.402241767435228 ], [ -121.563413353328713, 47.402238130864482 ], [ -121.563407996046351, 47.401968323524038 ] ], [ [ -121.562205109702333, 47.401439616938333 ], [ -121.56180771893051, 47.401443249281456 ], [ -121.561802370033533, 47.401173442773278 ], [ -121.561404981258164, 47.401177073704467 ], [ -121.561399633143438, 47.400907267188728 ], [ -121.559810087059546, 47.400921779595386 ], [ -121.559815426980336, 47.401191587085528 ], [ -121.56061020356735, 47.401184333185725 ], [ -121.56061554764662, 47.401454140641 ], [ -121.561410329441088, 47.401446881122197 ], [ -121.561415676354315, 47.401716688551183 ], [ -121.562210462031075, 47.401709423421806 ], [ -121.562205109702333, 47.401439616938333 ] ], [ [ -121.559804747193908, 47.400651972107923 ], [ -121.559407363583148, 47.400655596926242 ], [ -121.559412700072485, 47.40092540444094 ], [ -121.559810087059546, 47.400921779595386 ], [ -121.559804747193908, 47.400651972107923 ] ], [ [ -121.558220540105623, 47.400936270609776 ], [ -121.558225871807437, 47.40120607727561 ], [ -121.55941803792912, 47.401195211050457 ], [ -121.559412700072485, 47.40092540444094 ], [ -121.558220540105623, 47.400936270609776 ] ], [ [ -121.558215208446512, 47.400666463047322 ], [ -121.557817823290947, 47.400670082301339 ], [ -121.557823152898379, 47.40093988988248 ], [ -121.558220540105623, 47.400936270609776 ], [ -121.558215208446512, 47.400666463047322 ] ], [ [ -121.562629270249445, 47.402785017368437 ], [ -121.562231869286961, 47.402788652098295 ], [ -121.562226516724436, 47.402518844704495 ], [ -121.561829119083384, 47.402522478013701 ], [ -121.561818419564887, 47.4019828640876 ], [ -121.559831447061072, 47.402001008673054 ], [ -121.559826106974853, 47.401731201174648 ], [ -121.559428713832958, 47.401734826076506 ], [ -121.559423375853584, 47.401465018562106 ], [ -121.558231203576668, 47.401475884843492 ], [ -121.558241867267839, 47.402015499088016 ], [ -121.557447077709242, 47.402022736381532 ], [ -121.557441749945696, 47.401752929670138 ], [ -121.557044356473398, 47.401756546212475 ], [ -121.557055009289158, 47.40229616056638 ], [ -121.55784980306116, 47.40228892602196 ], [ -121.557855132986433, 47.402558732719989 ], [ -121.558252531179377, 47.402555113343432 ], [ -121.558257863223943, 47.402824920924871 ], [ -121.559450066276924, 47.402814054362345 ], [ -121.559460741504793, 47.403353668529959 ], [ -121.560255551030295, 47.403346417116317 ], [ -121.560250208629014, 47.403076610522682 ], [ -121.562634623594036, 47.403054824754591 ], [ -121.562629270249445, 47.402785017368437 ] ], [ [ -121.553398820774632, 47.398281534892213 ], [ -121.553404127320704, 47.398551342654038 ], [ -121.55300675793076, 47.398554945939559 ], [ -121.553033285199788, 47.399903984858589 ], [ -121.553430664847369, 47.39990038147976 ], [ -121.553441278651945, 47.400439997039577 ], [ -121.554236046001591, 47.400432786927155 ], [ -121.554241357089396, 47.400702594673874 ], [ -121.554638742727221, 47.400698987059471 ], [ -121.554644057246279, 47.400968794781775 ], [ -121.557028379643114, 47.400947124239728 ], [ -121.557023054138952, 47.400677316621071 ], [ -121.557420439404794, 47.400673700153568 ], [ -121.557415111904007, 47.400403892556369 ], [ -121.5570177286899, 47.400407509005184 ], [ -121.557001751360062, 47.399598087081955 ], [ -121.556604374245623, 47.399601702081391 ], [ -121.556599051067963, 47.399331894457788 ], [ -121.556201675950064, 47.399335508045404 ], [ -121.556196354878907, 47.399065700405892 ], [ -121.555401608593954, 47.399072924263443 ], [ -121.555396291680722, 47.398803116589356 ], [ -121.554998920500879, 47.398806725960007 ], [ -121.5549936043695, 47.398536918278417 ], [ -121.55459623518658, 47.398540526237213 ], [ -121.554590922486099, 47.398270718531343 ], [ -121.554193555299591, 47.398274325078312 ], [ -121.554188244705401, 47.398004517356526 ], [ -121.553393512958721, 47.398011727141551 ], [ -121.553398820774632, 47.398281534892213 ] ], [ [ -121.553382898815812, 47.397472111640241 ], [ -121.552985537619278, 47.397475713951714 ], [ -121.552980233343632, 47.39720590618245 ], [ -121.552582872831437, 47.39720950799002 ], [ -121.552577570649703, 47.396939699305555 ], [ -121.552180212133877, 47.39694329970137 ], [ -121.552185513576433, 47.397213107496761 ], [ -121.551788154279336, 47.397216706509674 ], [ -121.551793452400844, 47.397486514334794 ], [ -121.552588176380127, 47.397479315769601 ], [ -121.552593478659048, 47.397749123560352 ], [ -121.552990843274145, 47.397745521715429 ], [ -121.552996147671593, 47.398015330389768 ], [ -121.553393512958721, 47.398011727141551 ], [ -121.553382898815812, 47.397472111640241 ] ], [ [ -121.551782854875796, 47.396946897796248 ], [ -121.551385497575282, 47.396950495397448 ], [ -121.551374904371727, 47.396410878832945 ], [ -121.550977549794538, 47.3964144750122 ], [ -121.550972254670086, 47.396144667169501 ], [ -121.550574903401724, 47.396148261029218 ], [ -121.55055902582221, 47.395338836554536 ], [ -121.550161679340832, 47.395342429873125 ], [ -121.550177552091142, 47.396151854395207 ], [ -121.548588143653092, 47.396166213945065 ], [ -121.548582860878682, 47.395896405094305 ], [ -121.546993459773134, 47.395910742280137 ], [ -121.546988185270635, 47.395640934257443 ], [ -121.546193488493543, 47.3956480944547 ], [ -121.546188218135455, 47.395378285498332 ], [ -121.545790872391251, 47.395381864384085 ], [ -121.545796140685539, 47.395651672459515 ], [ -121.54420674627292, 47.395665971463941 ], [ -121.544212006428722, 47.395935780515643 ], [ -121.546596110022733, 47.395914323089741 ], [ -121.546601382540729, 47.396184132033206 ], [ -121.546998734342509, 47.396180551205148 ], [ -121.547004010278485, 47.396450359225227 ], [ -121.547401364077004, 47.396446776985456 ], [ -121.547396087413986, 47.396176968975645 ], [ -121.548190792069576, 47.396169800345547 ], [ -121.548196072834941, 47.396439608318374 ], [ -121.549785488371668, 47.396425254275037 ], [ -121.549790777409299, 47.396695063075775 ], [ -121.550188132877295, 47.396691471065708 ], [ -121.55019871520652, 47.397231087739037 ], [ -121.550596074722591, 47.397227494298662 ], [ -121.55059078147309, 47.396957685529479 ], [ -121.550988140219999, 47.396954091605565 ], [ -121.550993434183965, 47.397223899465153 ], [ -121.551788154279336, 47.397216706509674 ], [ -121.551782854875796, 47.396946897796248 ] ], [ [ -121.543814656297954, 47.395939351573475 ], [ -121.54103319993655, 47.395964313593979 ], [ -121.541038445048528, 47.396234121888504 ], [ -121.540641091120207, 47.396237682727602 ], [ -121.540646334235191, 47.396507491043387 ], [ -121.541043688890568, 47.396503930194143 ], [ -121.541048934123211, 47.396773739393694 ], [ -121.541843647386258, 47.396766614378308 ], [ -121.541848896763554, 47.397036422644454 ], [ -121.542246255359103, 47.397032857578971 ], [ -121.542251506854257, 47.397302666728841 ], [ -121.543840950248082, 47.397288394252172 ], [ -121.543835690547297, 47.397018585176099 ], [ -121.544233050208234, 47.397015014036043 ], [ -121.544222528203818, 47.396475396820477 ], [ -121.544212006428722, 47.395935780515643 ], [ -121.543814656297954, 47.395939351573475 ] ], [ [ -121.494489206440704, 47.372085181989824 ], [ -121.494479189582734, 47.371545554668273 ], [ -121.494876362836393, 47.371542152056421 ], [ -121.494866343410294, 47.371002524775975 ], [ -121.495263512513205, 47.370999120806822 ], [ -121.495248477613558, 47.370189679964625 ], [ -121.49485131465876, 47.370193083880956 ], [ -121.494841295749936, 47.369653456634822 ], [ -121.494444136842162, 47.369656859123467 ], [ -121.494439129514546, 47.369387045487898 ], [ -121.491659028759003, 47.369410825603147 ], [ -121.491664021741343, 47.369680639361754 ], [ -121.490869703059928, 47.369687421566631 ], [ -121.490879682305703, 47.37022704915664 ], [ -121.490482518783381, 47.370230437755779 ], [ -121.490492494136205, 47.370770065394524 ], [ -121.49009532647483, 47.370773453535691 ], [ -121.490100311517182, 47.371043267381545 ], [ -121.489703143067601, 47.371046653240612 ], [ -121.489708126111907, 47.371316467107441 ], [ -121.489310954237496, 47.371319851599218 ], [ -121.489315936607596, 47.371589665479299 ], [ -121.488918762643422, 47.371593049495473 ], [ -121.488923743015604, 47.371862863396501 ], [ -121.4893209177052, 47.371859479370407 ], [ -121.489340846570471, 47.372938734046521 ], [ -121.489738029406965, 47.372935348557931 ], [ -121.489743014135271, 47.373205162440776 ], [ -121.491331755834977, 47.373191608274247 ], [ -121.491326764243524, 47.37292179535325 ], [ -121.492518314496081, 47.372911615605219 ], [ -121.49251331547201, 47.372641801848467 ], [ -121.494102040666533, 47.372628209722919 ], [ -121.494097034831469, 47.372358396931659 ], [ -121.494891392351747, 47.372351592103101 ], [ -121.494886382469318, 47.372081779350353 ], [ -121.494489206440704, 47.372085181989824 ] ], [ [ -121.529427017438294, 47.391750065529088 ], [ -121.529029696829937, 47.3917535865574 ], [ -121.529034880882762, 47.39202339624655 ], [ -121.529829526148177, 47.392016352760429 ], [ -121.529824337993261, 47.39174654310775 ], [ -121.530618978954379, 47.391739494985558 ], [ -121.530613786751061, 47.39146968537235 ], [ -121.529421831388106, 47.39148025586109 ], [ -121.529427017438294, 47.391750065529088 ] ], [ [ -121.528240235391408, 47.392030433261127 ], [ -121.528245415395716, 47.392300242989627 ], [ -121.527848090524756, 47.392303759875247 ], [ -121.527853268531516, 47.392573569624915 ], [ -121.528647920997543, 47.39256653443227 ], [ -121.528642740213158, 47.392296724710896 ], [ -121.529040064989189, 47.392293205938515 ], [ -121.529034880882762, 47.39202339624655 ], [ -121.528240235391408, 47.392030433261127 ] ], [ [ -121.526263960308924, 47.392587623310192 ], [ -121.526269130165019, 47.392857433135461 ], [ -121.527858445267384, 47.39284337938556 ], [ -121.527853268531516, 47.392573569624915 ], [ -121.526263960308924, 47.392587623310192 ] ], [ [ -121.525871800924747, 47.392860943092309 ], [ -121.525876968783109, 47.393130752938696 ], [ -121.525082307364855, 47.393137768701621 ], [ -121.525077143608783, 47.392867958819004 ], [ -121.524679814208412, 47.39287146459673 ], [ -121.524684975913459, 47.39314127449758 ], [ -121.524287644408773, 47.393144778900528 ], [ -121.524292804115944, 47.393414588822402 ], [ -121.524297965201043, 47.393684398738998 ], [ -121.523900629540975, 47.39368790178515 ], [ -121.523503293827531, 47.393691403438233 ], [ -121.52349813818104, 47.393421594376584 ], [ -121.52310080446567, 47.393425094618514 ], [ -121.523105958072847, 47.393694904597666 ], [ -121.523111113045928, 47.393964713672204 ], [ -121.522713775186702, 47.393968213456681 ], [ -121.5227189268373, 47.394238022560309 ], [ -121.522321588198054, 47.394241520961764 ], [ -121.522326737862571, 47.394511330985743 ], [ -121.522724079877378, 47.394507832558141 ], [ -121.522729231646238, 47.39477764256695 ], [ -121.523126575659091, 47.394774142728203 ], [ -121.523131729532267, 47.395043952721778 ], [ -121.523529075554919, 47.395040452371241 ], [ -121.523534231520841, 47.39531026145017 ], [ -121.52472627276201, 47.395299751102236 ], [ -121.524731436271395, 47.395569561020977 ], [ -121.526718181312603, 47.39555201641857 ], [ -121.526723353807242, 47.395821826257517 ], [ -121.52990216059564, 47.39579368463879 ], [ -121.529896971702627, 47.395523875844859 ], [ -121.530691668758706, 47.395516826320751 ], [ -121.530686475816793, 47.39524701756622 ], [ -121.531083822875587, 47.395243490728625 ], [ -121.531073434362696, 47.39470387235712 ], [ -121.53067609140642, 47.394707399158229 ], [ -121.530665707198608, 47.394167779862272 ], [ -121.530268368291303, 47.394171305233769 ], [ -121.530263177656664, 47.393901495576003 ], [ -121.529468505107744, 47.393908542095119 ], [ -121.529463318629155, 47.393638732403836 ], [ -121.52827131488354, 47.39364929078458 ], [ -121.528266134623635, 47.393379481940968 ], [ -121.526279470025287, 47.393397051895306 ], [ -121.526269130165019, 47.392857433135461 ], [ -121.525871800924747, 47.392860943092309 ] ], [ [ -121.528663467645302, 47.393375963589364 ], [ -121.529060800613749, 47.393372443844804 ], [ -121.529045247812746, 47.392563014742315 ], [ -121.528647920997543, 47.39256653443227 ], [ -121.528663467645302, 47.393375963589364 ] ], [ [ -121.532203061138162, 47.391455571577332 ], [ -121.532197860785018, 47.39118576204001 ], [ -121.53100591221812, 47.391196349190068 ], [ -121.53100071807124, 47.39092653960094 ], [ -121.530603403829929, 47.390930066146531 ], [ -121.530613786751061, 47.39146968537235 ], [ -121.532203061138162, 47.391455571577332 ] ], [ [ -121.481850370345839, 47.354382204153481 ], [ -121.48183060037293, 47.35330294023273 ], [ -121.481433562158244, 47.353306298017117 ], [ -121.481428620850735, 47.353036482259547 ], [ -121.4810315846332, 47.353039838634459 ], [ -121.481026646748219, 47.352770022855843 ], [ -121.479835541298073, 47.352780084490831 ], [ -121.479840474362149, 47.35304990031392 ], [ -121.479443437952042, 47.353053252020146 ], [ -121.479448367695454, 47.353323067872083 ], [ -121.479051329186177, 47.353326418203451 ], [ -121.479056256932438, 47.353596234076527 ], [ -121.478262175654152, 47.353602929698525 ], [ -121.478267099366022, 47.353872746509332 ], [ -121.477473013788426, 47.353879436597722 ], [ -121.477468092860349, 47.353609620659263 ], [ -121.477071052037743, 47.353612963148358 ], [ -121.477066133208581, 47.353343147196306 ], [ -121.475080935973338, 47.35335984228729 ], [ -121.475076027435591, 47.353090026252623 ], [ -121.474678990416152, 47.353093361254324 ], [ -121.474674083965894, 47.352823544306851 ], [ -121.473482977436035, 47.352833541814732 ], [ -121.473478075857216, 47.35256372482683 ], [ -121.472684009555536, 47.352570382232834 ], [ -121.472679112134358, 47.352300566113698 ], [ -121.472282080955637, 47.35230389271139 ], [ -121.472286975005304, 47.352573708855225 ], [ -121.469904770637129, 47.352593641133502 ], [ -121.469914535645174, 47.353133274530762 ], [ -121.469517497980178, 47.353136592335254 ], [ -121.469522377844598, 47.353406408610731 ], [ -121.469125338070143, 47.353409724140946 ], [ -121.469130215947672, 47.353679541336867 ], [ -121.468733174074771, 47.353682855492089 ], [ -121.468738051277796, 47.353952672701531 ], [ -121.469135095187966, 47.353949357629709 ], [ -121.469139973155237, 47.354219173933842 ], [ -121.46993406625505, 47.354212540471636 ], [ -121.469938948379891, 47.354482357644656 ], [ -121.47033599623532, 47.354479038362257 ], [ -121.47034088177125, 47.354748854615053 ], [ -121.470737931635568, 47.354745534822769 ], [ -121.470742817946686, 47.355015351069582 ], [ -121.472728078064392, 47.354998730234236 ], [ -121.472732974667252, 47.355268546398797 ], [ -121.473527081932161, 47.355261888648236 ], [ -121.473522181232894, 47.354992072518158 ], [ -121.476301542051857, 47.354968726653517 ], [ -121.476296627065551, 47.354698910648018 ], [ -121.477090726549292, 47.354692227901275 ], [ -121.477095644319832, 47.354962044779164 ], [ -121.477492695372234, 47.354958701304199 ], [ -121.477497616554217, 47.355228517261622 ], [ -121.478688775562262, 47.355218479331533 ], [ -121.47869370293968, 47.355488295240782 ], [ -121.479090757896401, 47.355484947062152 ], [ -121.479095687373089, 47.355754762957844 ], [ -121.479889801219329, 47.355748061490175 ], [ -121.479884867646078, 47.355478245629229 ], [ -121.481076031883163, 47.355468182589256 ], [ -121.481071093539541, 47.355198366776577 ], [ -121.481865198694621, 47.355191652356702 ], [ -121.481855313956203, 47.354652019912578 ], [ -121.482252362360896, 47.354648660649282 ], [ -121.482247418025707, 47.354378844900012 ], [ -121.481850370345839, 47.354382204153481 ] ], [ [ -121.489744558188193, 47.39479353216867 ], [ -121.490936595538827, 47.394783368219194 ], [ -121.490951571934232, 47.395592801553533 ], [ -121.491348924217704, 47.395589411328601 ], [ -121.491328946701273, 47.394510166664091 ], [ -121.489739572750892, 47.394523720708015 ], [ -121.489744558188193, 47.39479353216867 ] ], [ [ -121.489734586051952, 47.394253910157374 ], [ -121.48735053456474, 47.394274199333189 ], [ -121.487355508967525, 47.394544010888289 ], [ -121.488547541090668, 47.394533872067079 ], [ -121.488552520362816, 47.394803682680845 ], [ -121.488949866801349, 47.394800300867075 ], [ -121.488944884142171, 47.394530489379157 ], [ -121.489739572750892, 47.394523720708015 ], [ -121.489734586051952, 47.394253910157374 ] ], [ [ -121.486163476382146, 47.39455413717161 ], [ -121.486158508144428, 47.394284326463492 ], [ -121.485761166784684, 47.394287699382396 ], [ -121.48575620063805, 47.394017887760398 ], [ -121.484564179755779, 47.394027998121331 ], [ -121.484569139737488, 47.394297808896233 ], [ -121.485363824037734, 47.394291070016372 ], [ -121.485373752382372, 47.394830693303994 ], [ -121.486565791418144, 47.394820574427456 ], [ -121.486570760496548, 47.395090386030873 ], [ -121.487762805224264, 47.395080254564043 ], [ -121.487757828678724, 47.394810443920086 ], [ -121.487360483421767, 47.394813822446224 ], [ -121.487355508967525, 47.394544010888289 ], [ -121.486163476382146, 47.39455413717161 ] ], [ [ -121.484559219814301, 47.393758186449922 ], [ -121.484161881027447, 47.393761553769181 ], [ -121.484166838917815, 47.394031365458005 ], [ -121.484564179755779, 47.394027998121331 ], [ -121.484559219814301, 47.393758186449922 ] ], [ [ -121.482974817421152, 47.394041459101985 ], [ -121.482979769209052, 47.394311270845968 ], [ -121.484171796848386, 47.394301176250409 ], [ -121.484166838917815, 47.394031365458005 ], [ -121.482974817421152, 47.394041459101985 ] ], [ [ -121.48295996237519, 47.393232024786947 ], [ -121.482562627486189, 47.393235386499114 ], [ -121.48257747637841, 47.39404482086632 ], [ -121.482974817421152, 47.394041459101985 ], [ -121.48295996237519, 47.393232024786947 ] ], [ [ -121.481782795475397, 47.39405154110765 ], [ -121.481777849892154, 47.393781729314341 ], [ -121.480983171562826, 47.393788443956204 ], [ -121.480988114356833, 47.394058254877152 ], [ -121.480590773069892, 47.394061610575527 ], [ -121.480585833640404, 47.393791798730156 ], [ -121.479393816929587, 47.393801855608196 ], [ -121.478599137988141, 47.393808553533013 ], [ -121.47820179844679, 47.39381190085556 ], [ -121.478196871375388, 47.393542088909058 ], [ -121.477402196242238, 47.393548779340215 ], [ -121.477407120524319, 47.393818590414313 ], [ -121.477009780830372, 47.393821933557582 ], [ -121.477004859912668, 47.39355212155921 ], [ -121.476607522218927, 47.393555463292124 ], [ -121.476602602078842, 47.393285651286917 ], [ -121.476205266385435, 47.393288991609403 ], [ -121.4762003496717, 47.393019179582353 ], [ -121.475405682234964, 47.393025856013679 ], [ -121.475400768349857, 47.392756043962549 ], [ -121.472619446406568, 47.392779367462396 ], [ -121.472624345933681, 47.393049179634133 ], [ -121.472227011784696, 47.393052506008814 ], [ -121.472231910635699, 47.393322318193363 ], [ -121.471834574384843, 47.393325643192043 ], [ -121.47184926242798, 47.394135078930347 ], [ -121.472246603507813, 47.394131753887471 ], [ -121.472256400329812, 47.394671377390893 ], [ -121.473051091867546, 47.39466472304948 ], [ -121.473055993800131, 47.394934535224571 ], [ -121.474248036207513, 47.394924542316801 ], [ -121.474252944344769, 47.395194354443099 ], [ -121.475444993785487, 47.395184349837436 ], [ -121.47544990812726, 47.395454161914856 ], [ -121.4766419619407, 47.395444144726895 ], [ -121.476646882487429, 47.395713956755301 ], [ -121.477441589319852, 47.395707271627337 ], [ -121.47744651402013, 47.395977083624025 ], [ -121.478241223427347, 47.395970392896395 ], [ -121.478246152281287, 47.396240204861421 ], [ -121.479040866923299, 47.396233509418444 ], [ -121.479045798595166, 47.396503320459829 ], [ -121.480237875673794, 47.396493267248296 ], [ -121.480242814875396, 47.396763078232908 ], [ -121.483421700375203, 47.396736208835989 ], [ -121.483416746075534, 47.396466397083422 ], [ -121.484211462179672, 47.396459666291015 ], [ -121.484206503839701, 47.396189855475583 ], [ -121.484603861088161, 47.396186487999508 ], [ -121.484598900747883, 47.395916677204333 ], [ -121.484201545550903, 47.395920044662972 ], [ -121.484196587301966, 47.395650232953834 ], [ -121.483799235429686, 47.395653598994407 ], [ -121.483794279294472, 47.395383788170108 ], [ -121.483396928097804, 47.39538715280775 ], [ -121.483391974053987, 47.395117341069522 ], [ -121.482994626181792, 47.395120704288956 ], [ -121.482989674251655, 47.394850893435667 ], [ -121.482592327055187, 47.39485425525227 ], [ -121.482587377227446, 47.394584444384428 ], [ -121.481792688108342, 47.394591163795887 ], [ -121.481787741098444, 47.394321352004376 ], [ -121.482582427439709, 47.394314632620095 ], [ -121.48257747637841, 47.39404482086632 ], [ -121.481782795475397, 47.39405154110765 ] ], [ [ -121.48460882147954, 47.396456298797496 ], [ -121.485006179403669, 47.396452929918468 ], [ -121.485021067050781, 47.397262363176836 ], [ -121.485815795053597, 47.397255621134597 ], [ -121.48582076181566, 47.397525432791149 ], [ -121.486615495041093, 47.397518685133697 ], [ -121.486620465946061, 47.397788495858784 ], [ -121.488209937348643, 47.39777498467069 ], [ -121.488214916511012, 47.398044795328602 ], [ -121.489407025680435, 47.39803464748163 ], [ -121.489402041688138, 47.397764836868475 ], [ -121.490594144251034, 47.397754677434712 ], [ -121.490589154155742, 47.397484866877001 ], [ -121.490986519514408, 47.397481477030695 ], [ -121.490981526094828, 47.397211666501022 ], [ -121.491378890686448, 47.397208276170808 ], [ -121.491363907220091, 47.396398843736819 ], [ -121.490966548782552, 47.39640223401441 ], [ -121.490961556893538, 47.396132423488517 ], [ -121.490564201780359, 47.396135812347737 ], [ -121.490559210669815, 47.395866001814831 ], [ -121.488175088602659, 47.395886308322865 ], [ -121.488170109851566, 47.395616497687683 ], [ -121.485785996928371, 47.395636754845327 ], [ -121.485790963382726, 47.395906566484747 ], [ -121.484996254569239, 47.395913308360093 ], [ -121.48500121696091, 47.396183119137817 ], [ -121.484603861088161, 47.396186487999508 ], [ -121.48460882147954, 47.396456298797496 ] ] ], [ [ [ -121.589551409008109, 47.417107879330636 ], [ -121.589153903597264, 47.417111606633746 ], [ -121.589148414506994, 47.416841802152057 ], [ -121.589843408697575, 47.416835286032864 ], [ -121.589864762083664, 47.417644651861544 ], [ -121.589562391451466, 47.417647487363077 ], [ -121.589551409008109, 47.417107879330636 ] ] ] ] } }
]
}
